[{"OBJECT_NAME":"STARLINK-31526","OBJECT_ID":"2024-036U","EPOCH":"2026-03-09T23:29:35.594016","MEAN_MOTION":15.30201488,"ECCENTRICITY":0.00013669,"INCLINATION":53.1584,"RA_OF_ASC_NODE":51.442,"ARG_OF_PERICENTER":93.7501,"MEAN_ANOMALY":266.3656,"EPHEMERIS_TYPE":0,"CLASSIFICATION_TYPE":"U","NORAD_CAT_ID":59016,"ELEMENT_SET_NO":999,"REV_AT_EPOCH":11572,"BSTAR":0.00034500392,"MEAN_MOTION_DOT":9.873e-5,"MEAN_MOTION_DDOT":0},{"OBJECT_NAME":"STARLINK-31704","OBJECT_ID":"2024-076Y","EPOCH":"2026-03-09T22:00:01.999584","MEAN_MOTION":15.30892355,"ECCENTRICITY":0.00079744,"INCLINATION":42.9978,"RA_OF_ASC_NODE":323.2923,"ARG_OF_PERICENTER":240.5046,"MEAN_ANOMALY":200.4144,"EPHEMERIS_TYPE":0,"CLASSIFICATION_TYPE":"U","NORAD_CAT_ID":59586,"ELEMENT_SET_NO":999,"REV_AT_EPOCH":581,"BSTAR":0.0024766131,"MEAN_MOTION_DOT":0.00076042,"MEAN_MOTION_DDOT":0}]
